{
  "type":"FeatureCollection",
  "name":"HNBGU_Birla_Campus_Polling_Booths_2026_27_DEMO",
  "crs":{"type":"name","properties":{"name":"urn:ogc:def:crs:OGC:1.3:CRS84"}},
  "metadata":{"election":"HNBGU Birla Campus Student Union Election 2026-27","campus":"Birla Campus, Srinagar","geometry_crs":"WGS84","attribute_authority":"HNBGU Election Booth List","spatial_sources":["OSM","Google Maps","Mapillary","Field Survey"],"verification_policy":"Field verification required before verified=true","demo_mode":true,"warning":"DEMO COORDINATES — replace all spatial fields with verified booth/entrance/navigation coordinates before production"},
  "features":[
    {"type":"Feature","geometry":{"type":"Point","coordinates":[78.78277,30.22158]},"properties":{"booth_id":"PB01","booth_no":1,"booth_name":"Polling Booth 1","venue":"ACL Building","building_id":"B-ACL","building_name":"ACL Building","room_no":"501","room_label":"Room No. 501","floor":"Ground Floor","voter_groups":[],"latitude":30.22158,"longitude":78.78277,"navigation_lat":30.22143,"navigation_lon":78.78260,"entrance_id":"DEMO-ACL-01","mapillary_ref":null,"mapillary_sequence_id":null,"status":"active","verified":false,"dummy":true,"verification_date":null,"source":"HNBGU Election Booth List + DEMO","election_source":"HNBGU Student Union Election 2026-27","spatial_sources":["OSM"],"notes":"DEMO ONLY; replace with field-verified points"}},
    {"type":"Feature","geometry":{"type":"Point","coordinates":[78.78279,30.22158]},"properties":{"booth_id":"PB02","booth_no":2,"booth_name":"Polling Booth 2","venue":"ACL Building","building_id":"B-ACL","building_name":"ACL Building","room_no":"502","room_label":"Room No. 502","floor":"Ground Floor","voter_groups":[],"latitude":30.22158,"longitude":78.78279,"navigation_lat":30.22143,"navigation_lon":78.78260,"entrance_id":"DEMO-ACL-01","mapillary_ref":null,"mapillary_sequence_id":null,"status":"active","verified":false,"dummy":true,"verification_date":null,"source":"HNBGU Election Booth List + DEMO","election_source":"HNBGU Student Union Election 2026-27","spatial_sources":["OSM"],"notes":"DEMO ONLY"}},
    {"type":"Feature","geometry":{"type":"Point","coordinates":[78.78280,30.22167]},"properties":{"booth_id":"PB03","booth_no":3,"booth_name":"Polling Booth 3","venue":"ACL Building","building_id":"B-ACL","building_name":"ACL Building","room_no":"504","room_label":"Room No. 504","floor":"First Floor","voter_groups":[],"latitude":30.22167,"longitude":78.78280,"navigation_lat":30.22143,"navigation_lon":78.78260,"entrance_id":"DEMO-ACL-01","mapillary_ref":null,"mapillary_sequence_id":null,"status":"active","verified":false,"dummy":true,"verification_date":null,"source":"HNBGU Election Booth List + DEMO","election_source":"HNBGU Student Union Election 2026-27","spatial_sources":["OSM"],"notes":"DEMO ONLY"}},
    {"type":"Feature","geometry":{"type":"Point","coordinates":[78.78282,30.22167]},"properties":{"booth_id":"PB04","booth_no":4,"booth_name":"Polling Booth 4","venue":"ACL Building","building_id":"B-ACL","building_name":"ACL Building","room_no":"505","room_label":"Room No. 505","floor":"First Floor","voter_groups":[],"latitude":30.22167,"longitude":78.78282,"navigation_lat":30.22143,"navigation_lon":78.78260,"entrance_id":"DEMO-ACL-01","mapillary_ref":null,"mapillary_sequence_id":null,"status":"active","verified":false,"dummy":true,"verification_date":null,"source":"HNBGU Election Booth List + DEMO","election_source":"HNBGU Student Union Election 2026-27","spatial_sources":["OSM"],"notes":"DEMO ONLY"}},
    {"type":"Feature","geometry":{"type":"Point","coordinates":[78.78284,30.22167]},"properties":{"booth_id":"PB05","booth_no":5,"booth_name":"Polling Booth 5","venue":"ACL Building","building_id":"B-ACL","building_name":"ACL Building","room_no":"506","room_label":"Room No. 506","floor":"First Floor","voter_groups":[],"latitude":30.22167,"longitude":78.78284,"navigation_lat":30.22143,"navigation_lon":78.78260,"entrance_id":"DEMO-ACL-01","mapillary_ref":null,"mapillary_sequence_id":null,"status":"active","verified":false,"dummy":true,"verification_date":null,"source":"HNBGU Election Booth List + DEMO","election_source":"HNBGU Student Union Election 2026-27","spatial_sources":["OSM"],"notes":"DEMO ONLY"}},
    {"type":"Feature","geometry":{"type":"Point","coordinates":[78.78382,30.22208]},"properties":{"booth_id":"PB06","booth_no":6,"booth_name":"Polling Booth 6","venue":"Social Science Building","building_id":"B-SS","building_name":"Social Science Building","room_no":"401 (Defence)","room_label":"Room No. 401 (Defence)","floor":"Ground Floor","voter_groups":[],"latitude":30.22208,"longitude":78.78382,"navigation_lat":30.22190,"navigation_lon":78.78362,"entrance_id":"DEMO-SS-01","mapillary_ref":null,"mapillary_sequence_id":null,"status":"active","verified":false,"dummy":true,"verification_date":null,"source":"HNBGU Election Booth List + DEMO","election_source":"HNBGU Student Union Election 2026-27","spatial_sources":["OSM"],"notes":"DEMO ONLY"}},
    {"type":"Feature","geometry":{"type":"Point","coordinates":[78.78384,30.22208]},"properties":{"booth_id":"PB07","booth_no":7,"booth_name":"Polling Booth 7","venue":"Social Science Building","building_id":"B-SS","building_name":"Social Science Building","room_no":"402 (Philosophy)","room_label":"Room No. 402 (Philosophy)","floor":"Ground Floor","voter_groups":[],"latitude":30.22208,"longitude":78.78384,"navigation_lat":30.22190,"navigation_lon":78.78362,"entrance_id":"DEMO-SS-01","mapillary_ref":null,"mapillary_sequence_id":null,"status":"active","verified":false,"dummy":true,"verification_date":null,"source":"HNBGU Election Booth List + DEMO","election_source":"HNBGU Student Union Election 2026-27","spatial_sources":["OSM"],"notes":"DEMO ONLY"}},
    {"type":"Feature","geometry":{"type":"Point","coordinates":[78.78386,30.22214]},"properties":{"booth_id":"PB08","booth_no":8,"booth_name":"Polling Booth 8","venue":"Social Science Building","building_id":"B-SS","building_name":"Social Science Building","room_no":"403 (Political Science)","room_label":"Room No. 403 (Political Science)","floor":"First Floor","voter_groups":[],"latitude":30.22214,"longitude":78.78386,"navigation_lat":30.22190,"navigation_lon":78.78362,"entrance_id":"DEMO-SS-01","mapillary_ref":null,"mapillary_sequence_id":null,"status":"active","verified":false,"dummy":true,"verification_date":null,"source":"HNBGU Election Booth List + DEMO","election_source":"HNBGU Student Union Election 2026-27","spatial_sources":["OSM"],"notes":"DEMO ONLY"}},
    {"type":"Feature","geometry":{"type":"Point","coordinates":[78.78388,30.22214]},"properties":{"booth_id":"PB09","booth_no":9,"booth_name":"Polling Booth 9","venue":"Social Science Building","building_id":"B-SS","building_name":"Social Science Building","room_no":"404 (Economics)","room_label":"Room No. 404 (Economics)","floor":"First Floor","voter_groups":[],"latitude":30.22214,"longitude":78.78388,"navigation_lat":30.22190,"navigation_lon":78.78362,"entrance_id":"DEMO-SS-01","mapillary_ref":null,"mapillary_sequence_id":null,"status":"active","verified":false,"dummy":true,"verification_date":null,"source":"HNBGU Election Booth List + DEMO","election_source":"HNBGU Student Union Election 2026-27","spatial_sources":["OSM"],"notes":"DEMO ONLY"}},
    {"type":"Feature","geometry":{"type":"Point","coordinates":[78.78391,30.22165]},"properties":{"booth_id":"PB10","booth_no":10,"booth_name":"Polling Booth 10","venue":"Arts Building (Old)","building_id":"B-OAB","building_name":"Arts Building (Old)","room_no":"102","room_label":"Room No. 102","floor":"Ground Floor","voter_groups":[],"latitude":30.22165,"longitude":78.78391,"navigation_lat":30.22149,"navigation_lon":78.78370,"entrance_id":"DEMO-OAB-01","mapillary_ref":null,"mapillary_sequence_id":null,"status":"active","verified":false,"dummy":true,"verification_date":null,"source":"HNBGU Election Booth List + DEMO","election_source":"HNBGU Student Union Election 2026-27","spatial_sources":["OSM"],"notes":"DEMO ONLY"}},
    {"type":"Feature","geometry":{"type":"Point","coordinates":[78.78325,30.22149]},"properties":{"booth_id":"PB11","booth_no":11,"booth_name":"Polling Booth 11","venue":"Arts Building (Near B.P.Ed.)","building_id":"B-BPED","building_name":"Arts Building (Near B.P.Ed.)","room_no":"109","room_label":"Room No. 109","floor":"Ground Floor","voter_groups":[],"latitude":30.22149,"longitude":78.78325,"navigation_lat":30.22130,"navigation_lon":78.78305,"entrance_id":"DEMO-BPED-01","mapillary_ref":null,"mapillary_sequence_id":null,"status":"active","verified":false,"dummy":true,"verification_date":null,"source":"HNBGU Election Booth List + DEMO","election_source":"HNBGU Student Union Election 2026-27","spatial_sources":["OSM"],"notes":"DEMO building association only; exact Arts Building requires field verification"}},
    {"type":"Feature","geometry":{"type":"Point","coordinates":[78.78321,30.22149]},"properties":{"booth_id":"PB12","booth_no":12,"booth_name":"Polling Booth 12","venue":"B.P.Ed.","building_id":"B-BPED","building_name":"Department of Physical Education / B.P.Ed.","room_no":"Lecture Hall-2","room_label":"Lecture Hall-2","floor":null,"voter_groups":[],"latitude":30.22149,"longitude":78.78321,"navigation_lat":30.22130,"navigation_lon":78.78305,"entrance_id":"DEMO-BPED-01","mapillary_ref":null,"mapillary_sequence_id":null,"status":"active","verified":false,"dummy":true,"verification_date":null,"source":"HNBGU Election Booth List + DEMO","election_source":"HNBGU Student Union Election 2026-27","spatial_sources":["OSM"],"notes":"DEMO ONLY; room location not verified"}},
    {"type":"Feature","geometry":{"type":"Point","coordinates":[78.78313,30.22117]},"properties":{"booth_id":"PB13","booth_no":13,"booth_name":"Polling Booth 13","venue":"Botany Lab.","building_id":"B-BOT","building_name":"Botany / Life Sciences Lab","room_no":null,"room_label":null,"floor":null,"voter_groups":[],"latitude":30.22117,"longitude":78.78313,"navigation_lat":30.22098,"navigation_lon":78.78294,"entrance_id":"DEMO-BOT-01","mapillary_ref":null,"mapillary_sequence_id":null,"status":"active","verified":false,"dummy":true,"verification_date":null,"source":"HNBGU Election Booth List + DEMO","election_source":"HNBGU Student Union Election 2026-27","spatial_sources":["OSM"],"notes":"DEMO ONLY; exact Botany Lab geometry and entrance pending"}},
    {"type":"Feature","geometry":{"type":"Point","coordinates":[78.78188,30.22108]},"properties":{"booth_id":"PB14","booth_no":14,"booth_name":"Polling Booth 14","venue":"Senate Hall","building_id":"B-SAC","building_name":"Student Activity Centre / Senate Hall","room_no":null,"room_label":null,"floor":null,"voter_groups":[],"latitude":30.22108,"longitude":78.78188,"navigation_lat":30.22088,"navigation_lon":78.78167,"entrance_id":"DEMO-SAC-01","mapillary_ref":null,"mapillary_sequence_id":null,"status":"active","verified":false,"dummy":true,"verification_date":null,"source":"HNBGU Election Booth List + DEMO","election_source":"HNBGU Student Union Election 2026-27","spatial_sources":["OSM"],"notes":"DEMO ONLY; Senate Hall entrance requires field verification"}}
  ]
}
